{
  "type": "FeatureCollection",
  "features": [
    {
      "type": "Feature",
      "properties": {
        "norad_id": 39773,
        "name": "EUTELSAT 3B",
        "group": "eutelsat",
        "lat": 0.035295611919402406,
        "lon": 29.548456822824814,
        "alt_km": 35804.37637053805,
        "timestamp": "2025-12-07T20:38:13.748870+00:00",
        "meta_object_name": "EUTELSAT 3B",
        "meta_object_id": "2014-030A",
        "meta_epoch": "2025-12-07T06:48:01.742400",
        "meta_mean_motion": 1.00271879,
        "meta_eccentricity": 0.00046944,
        "meta_inclination": 0.0655,
        "meta_ra_of_asc_node": 12.2478,
        "meta_arg_of_pericenter": 219.4188,
        "meta_mean_anomaly": 309.7493,
        "meta_ephemeris_type": 0,
        "meta_classification_type": "U",
        "meta_norad_cat_id": 39773,
        "meta_element_set_no": 999,
        "meta_rev_at_epoch": 4214,
        "meta_bstar": 0,
        "meta_mean_motion_dot": 2.5e-07,
        "meta_mean_motion_ddot": 0,
        "tle_line1": "1 39773U 14030A   25341.28335350  .00000025  00000+0  00000+0 0  9996",
        "tle_line2": "2 39773   0.0655  12.2478 0004694 219.4188 309.7493  1.00271879 42148"
      },
      "geometry": {
        "type": "Point",
        "coordinates": [
          29.548456822824814,
          0.035295611919402406
        ]
      }
    },
    {
      "type": "Feature",
      "properties": {
        "norad_id": 40425,
        "name": "EUTELSAT 115 WEST B",
        "group": "eutelsat",
        "lat": 0.012435589010983624,
        "lon": -88.44553478710762,
        "alt_km": 35787.3581533387,
        "timestamp": "2025-12-07T20:38:13.748882+00:00",
        "meta_object_name": "EUTELSAT 115 WEST B",
        "meta_object_id": "2015-010B",
        "meta_epoch": "2025-12-06T10:47:28.419072",
        "meta_mean_motion": 1.00271104,
        "meta_eccentricity": 3.126e-05,
        "meta_inclination": 0.007,
        "meta_ra_of_asc_node": 143.6476,
        "meta_arg_of_pericenter": 276.9333,
        "meta_mean_anomaly": 61.9058,
        "meta_ephemeris_type": 0,
        "meta_classification_type": "U",
        "meta_norad_cat_id": 40425,
        "meta_element_set_no": 999,
        "meta_rev_at_epoch": 3946,
        "meta_bstar": 0,
        "meta_mean_motion_dot": -1.8e-07,
        "meta_mean_motion_ddot": 0,
        "tle_line1": "1 40425U 15010B   25340.44963448 -.00000018  00000+0  00000+0 0  9996",
        "tle_line2": "2 40425   0.0070 143.6476 0000312 276.9333  61.9058  1.00271104 39461"
      },
      "geometry": {
        "type": "Point",
        "coordinates": [
          -88.44553478710762,
          0.012435589010983624
        ]
      }
    },
    {
      "type": "Feature",
      "properties": {
        "norad_id": 40875,
        "name": "EUTELSAT 8 WEST B",
        "group": "eutelsat",
        "lat": 0.03854617785336386,
        "lon": 18.480516641426455,
        "alt_km": 35795.11014251844,
        "timestamp": "2025-12-07T20:38:13.748894+00:00",
        "meta_object_name": "EUTELSAT 8 WEST B",
        "meta_object_id": "2015-039B",
        "meta_epoch": "2025-12-07T06:44:54.540384",
        "meta_mean_motion": 1.00271381,
        "meta_eccentricity": 0.00041316,
        "meta_inclination": 0.0646,
        "meta_ra_of_asc_node": 355.8091,
        "meta_arg_of_pericenter": 261.9788,
        "meta_mean_anomaly": 271.7589,
        "meta_ephemeris_type": 0,
        "meta_classification_type": "U",
        "meta_norad_cat_id": 40875,
        "meta_element_set_no": 999,
        "meta_rev_at_epoch": 3773,
        "meta_bstar": 0,
        "meta_mean_motion_dot": -6.1e-07,
        "meta_mean_motion_ddot": 0,
        "tle_line1": "1 40875U 15039B   25341.28118681 -.00000061  00000+0  00000+0 0  9998",
        "tle_line2": "2 40875   0.0646 355.8091 0004131 261.9788 271.7589  1.00271381 37735"
      },
      "geometry": {
        "type": "Point",
        "coordinates": [
          18.480516641426455,
          0.03854617785336386
        ]
      }
    },
    {
      "type": "Feature",
      "properties": {
        "norad_id": 41310,
        "name": "EUTELSAT 9B",
        "group": "eutelsat",
        "lat": -0.028269923345810088,
        "lon": 35.47557914169935,
        "alt_km": 35798.71112451044,
        "timestamp": "2025-12-07T20:38:13.748905+00:00",
        "meta_object_name": "EUTELSAT 9B",
        "meta_object_id": "2016-005A",
        "meta_epoch": "2025-12-07T06:49:46.574112",
        "meta_mean_motion": 1.00272717,
        "meta_eccentricity": 0.00050188,
        "meta_inclination": 0.076,
        "meta_ra_of_asc_node": 75.8994,
        "meta_arg_of_pericenter": 192.158,
        "meta_mean_anomaly": 279.6964,
        "meta_ephemeris_type": 0,
        "meta_classification_type": "U",
        "meta_norad_cat_id": 41310,
        "meta_element_set_no": 999,
        "meta_rev_at_epoch": 3619,
        "meta_bstar": 0,
        "meta_mean_motion_dot": 6.6e-07,
        "meta_mean_motion_ddot": 0,
        "tle_line1": "1 41310U 16005A   25341.28456683  .00000066  00000+0  00000+0 0  9998",
        "tle_line2": "2 41310   0.0760  75.8994 0005018 192.1580 279.6964  1.00272717 36195"
      },
      "geometry": {
        "type": "Point",
        "coordinates": [
          35.47557914169935,
          -0.028269923345810088
        ]
      }
    },
    {
      "type": "Feature",
      "properties": {
        "norad_id": 41382,
        "name": "EUTELSAT 65 WEST A",
        "group": "eutelsat",
        "lat": -0.03774167484769134,
        "lon": -38.76362167773792,
        "alt_km": 35779.92354398603,
        "timestamp": "2025-12-07T20:38:13.748917+00:00",
        "meta_object_name": "EUTELSAT 65 WEST A",
        "meta_object_id": "2016-014A",
        "meta_epoch": "2025-12-07T06:28:33.604896",
        "meta_mean_motion": 1.00269411,
        "meta_eccentricity": 0.00028789,
        "meta_inclination": 0.049,
        "meta_ra_of_asc_node": 357.376,
        "meta_arg_of_pericenter": 268.34,
        "meta_mean_anomaly": 202.5062,
        "meta_ephemeris_type": 0,
        "meta_classification_type": "U",
        "meta_norad_cat_id": 41382,
        "meta_element_set_no": 999,
        "meta_rev_at_epoch": 3561,
        "meta_bstar": 0,
        "meta_mean_motion_dot": -2.72e-06,
        "meta_mean_motion_ddot": 0,
        "tle_line1": "1 41382U 16014A   25341.26983339 -.00000272  00000+0  00000+0 0  9998",
        "tle_line2": "2 41382   0.0490 357.3760 0002878 268.3400 202.5062  1.00269411 35618"
      },
      "geometry": {
        "type": "Point",
        "coordinates": [
          -38.76362167773792,
          -0.03774167484769134
        ]
      }
    },
    {
      "type": "Feature",
      "properties": {
        "norad_id": 41589,
        "name": "EUTELSAT 117 WEST B",
        "group": "eutelsat",
        "lat": 0.01603473507758721,
        "lon": -90.58152327716833,
        "alt_km": 35788.102027413865,
        "timestamp": "2025-12-07T20:38:13.748928+00:00",
        "meta_object_name": "EUTELSAT 117 WEST B",
        "meta_object_id": "2016-038B",
        "meta_epoch": "2025-12-07T06:13:50.016288",
        "meta_mean_motion": 1.00269281,
        "meta_eccentricity": 3.842e-05,
        "meta_inclination": 0.0046,
        "meta_ra_of_asc_node": 145.3328,
        "meta_arg_of_pericenter": 269.6344,
        "meta_mean_anomaly": 357.7751,
        "meta_ephemeris_type": 0,
        "meta_classification_type": "U",
        "meta_norad_cat_id": 41589,
        "meta_element_set_no": 999,
        "meta_rev_at_epoch": 3473,
        "meta_bstar": 0,
        "meta_mean_motion_dot": -7e-08,
        "meta_mean_motion_ddot": 0,
        "tle_line1": "1 41589U 16038B   25341.25960667 -.00000007  00000+0  00000+0 0  9997",
        "tle_line2": "2 41589   0.0046 145.3328 0000384 269.6344 357.7751  1.00269281 34735"
      },
      "geometry": {
        "type": "Point",
        "coordinates": [
          -90.58152327716833,
          0.01603473507758721
        ]
      }
    },
    {
      "type": "Feature",
      "properties": {
        "norad_id": 42741,
        "name": "EUTELSAT 172B",
        "group": "eutelsat",
        "lat": -0.0019623550073520385,
        "lon": -161.57738801220142,
        "alt_km": 35787.73308753131,
        "timestamp": "2025-12-07T20:38:13.748940+00:00",
        "meta_object_name": "EUTELSAT 172B",
        "meta_object_id": "2017-029B",
        "meta_epoch": "2025-12-07T05:53:29.465088",
        "meta_mean_motion": 1.00267647,
        "meta_eccentricity": 3.887e-05,
        "meta_inclination": 0.0093,
        "meta_ra_of_asc_node": 86.2116,
        "meta_arg_of_pericenter": 220.8849,
        "meta_mean_anomaly": 29.5558,
        "meta_ephemeris_type": 0,
        "meta_classification_type": "U",
        "meta_norad_cat_id": 42741,
        "meta_element_set_no": 999,
        "meta_rev_at_epoch": 3180,
        "meta_bstar": 0,
        "meta_mean_motion_dot": -2e-08,
        "meta_mean_motion_ddot": 0,
        "tle_line1": "1 42741U 17029B   25341.24547992 -.00000002  00000+0  00000+0 0  9995",
        "tle_line2": "2 42741   0.0093  86.2116 0000388 220.8849  29.5558  1.00267647 31807"
      },
      "geometry": {
        "type": "Point",
        "coordinates": [
          -161.57738801220142,
          -0.0019623550073520385
        ]
      }
    }
  ]
}